[
  {
    "code": "148",
    "name": "Hòa Bình",
    "name_en": "Hoa Binh",
    "full_name": "Thành phố Hòa Bình",
    "full_name_en": "Hoa Binh City",
    "type": "thành phố",
    "province_code": "17",
    "codename": "hoa_binh"
  },
  {
    "code": "150",
    "name": "Đà Bắc",
    "name_en": "Da Bac",
    "full_name": "Huyện Đà Bắc",
    "full_name_en": "Da Bac District",
    "type": "huyện",
    "province_code": "17",
    "codename": "da_bac"
  },
  {
    "code": "152",
    "name": "Lương Sơn",
    "name_en": "Luong Son",
    "full_name": "Huyện Lương Sơn",
    "full_name_en": "Luong Son District",
    "type": "huyện",
    "province_code": "17",
    "codename": "luong_son"
  },
  {
    "code": "153",
    "name": "Kim Bôi",
    "name_en": "Kim Boi",
    "full_name": "Huyện Kim Bôi",
    "full_name_en": "Kim Boi District",
    "type": "huyện",
    "province_code": "17",
    "codename": "kim_boi"
  },
  {
    "code": "154",
    "name": "Cao Phong",
    "name_en": "Cao Phong",
    "full_name": "Huyện Cao Phong",
    "full_name_en": "Cao Phong District",
    "type": "huyện",
    "province_code": "17",
    "codename": "cao_phong"
  },
  {
    "code": "155",
    "name": "Tân Lạc",
    "name_en": "Tan Lac",
    "full_name": "Huyện Tân Lạc",
    "full_name_en": "Tan Lac District",
    "type": "huyện",
    "province_code": "17",
    "codename": "tan_lac"
  },
  {
    "code": "156",
    "name": "Mai Châu",
    "name_en": "Mai Chau",
    "full_name": "Huyện Mai Châu",
    "full_name_en": "Mai Chau District",
    "type": "huyện",
    "province_code": "17",
    "codename": "mai_chau"
  },
  {
    "code": "157",
    "name": "Lạc Sơn",
    "name_en": "Lac Son",
    "full_name": "Huyện Lạc Sơn",
    "full_name_en": "Lac Son District",
    "type": "huyện",
    "province_code": "17",
    "codename": "lac_son"
  },
  {
    "code": "158",
    "name": "Yên Thủy",
    "name_en": "Yen Thuy",
    "full_name": "Huyện Yên Thủy",
    "full_name_en": "Yen Thuy District",
    "type": "huyện",
    "province_code": "17",
    "codename": "yen_thuy"
  },
  {
    "code": "159",
    "name": "Lạc Thủy",
    "name_en": "Lac Thuy",
    "full_name": "Huyện Lạc Thủy",
    "full_name_en": "Lac Thuy District",
    "type": "huyện",
    "province_code": "17",
    "codename": "lac_thuy"
  }
]