[
  {
    "code": "815",
    "name": "Mỹ Tho",
    "name_en": "My Tho",
    "full_name": "Thành phố Mỹ Tho",
    "full_name_en": "My Tho City",
    "type": "thành phố",
    "province_code": "82",
    "codename": "my_tho"
  },
  {
    "code": "816",
    "name": "Gò Công",
    "name_en": "Go Cong",
    "full_name": "Thành phố Gò Công",
    "full_name_en": "Go Cong City",
    "type": "thành phố",
    "province_code": "82",
    "codename": "go_cong"
  },
  {
    "code": "817",
    "name": "Cai Lậy",
    "name_en": "Cai Lay",
    "full_name": "Thị xã Cai Lậy",
    "full_name_en": "Cai Lay Town",
    "type": "thị xã",
    "province_code": "82",
    "codename": "cai_lay"
  },
  {
    "code": "818",
    "name": "Tân Phước",
    "name_en": "Tan Phuoc",
    "full_name": "Huyện Tân Phước",
    "full_name_en": "Tan Phuoc District",
    "type": "huyện",
    "province_code": "82",
    "codename": "tan_phuoc"
  },
  {
    "code": "819",
    "name": "Cái Bè",
    "name_en": "Cai Be",
    "full_name": "Huyện Cái Bè",
    "full_name_en": "Cai Be District",
    "type": "huyện",
    "province_code": "82",
    "codename": "cai_be"
  },
  {
    "code": "820",
    "name": "Cai Lậy",
    "name_en": "Cai Lay",
    "full_name": "Huyện Cai Lậy",
    "full_name_en": "Cai Lay District",
    "type": "huyện",
    "province_code": "82",
    "codename": "cai_lay"
  },
  {
    "code": "821",
    "name": "Châu Thành",
    "name_en": "Chau Thanh",
    "full_name": "Huyện Châu Thành",
    "full_name_en": "Chau Thanh District",
    "type": "huyện",
    "province_code": "82",
    "codename": "chau_thanh"
  },
  {
    "code": "822",
    "name": "Chợ Gạo",
    "name_en": "Cho Gao",
    "full_name": "Huyện Chợ Gạo",
    "full_name_en": "Cho Gao District",
    "type": "huyện",
    "province_code": "82",
    "codename": "cho_gao"
  },
  {
    "code": "823",
    "name": "Gò Công Tây",
    "name_en": "Go Cong Tay",
    "full_name": "Huyện Gò Công Tây",
    "full_name_en": "Go Cong Tay District",
    "type": "huyện",
    "province_code": "82",
    "codename": "go_cong_tay"
  },
  {
    "code": "824",
    "name": "Gò Công Đông",
    "name_en": "Go Cong Dong",
    "full_name": "Huyện Gò Công Đông",
    "full_name_en": "Go Cong Dong District",
    "type": "huyện",
    "province_code": "82",
    "codename": "go_cong_dong"
  },
  {
    "code": "825",
    "name": "Tân Phú Đông",
    "name_en": "Tan Phu Dong",
    "full_name": "Huyện Tân Phú Đông",
    "full_name_en": "Tan Phu Dong District",
    "type": "huyện",
    "province_code": "82",
    "codename": "tan_phu_dong"
  }
]