[
  {
    "code": "02947",
    "name": "Phố Ràng",
    "name_en": "Pho Rang",
    "full_name": "Thị trấn Phố Ràng",
    "full_name_en": "Pho Rang Township",
    "type": "thị trấn",
    "district_code": "087",
    "codename": "pho_rang"
  },
  {
    "code": "02950",
    "name": "Tân Tiến",
    "name_en": "Tan Tien",
    "full_name": "Xã Tân Tiến",
    "full_name_en": "Tan Tien Commune",
    "type": "xã",
    "district_code": "087",
    "codename": "tan_tien"
  },
  {
    "code": "02953",
    "name": "Nghĩa Đô",
    "name_en": "Nghia Do",
    "full_name": "Xã Nghĩa Đô",
    "full_name_en": "Nghia Do Commune",
    "type": "xã",
    "district_code": "087",
    "codename": "nghia_do"
  },
  {
    "code": "02956",
    "name": "Vĩnh Yên",
    "name_en": "Vinh Yen",
    "full_name": "Xã Vĩnh Yên",
    "full_name_en": "Vinh Yen Commune",
    "type": "xã",
    "district_code": "087",
    "codename": "vinh_yen"
  },
  {
    "code": "02959",
    "name": "Điện Quan",
    "name_en": "Dien Quan",
    "full_name": "Xã Điện Quan",
    "full_name_en": "Dien Quan Commune",
    "type": "xã",
    "district_code": "087",
    "codename": "dien_quan"
  },
  {
    "code": "02962",
    "name": "Xuân Hoà",
    "name_en": "Xuan Hoa",
    "full_name": "Xã Xuân Hoà",
    "full_name_en": "Xuan Hoa Commune",
    "type": "xã",
    "district_code": "087",
    "codename": "xuan_hoa"
  },
  {
    "code": "02965",
    "name": "Tân Dương",
    "name_en": "Tan Duong",
    "full_name": "Xã Tân Dương",
    "full_name_en": "Tan Duong Commune",
    "type": "xã",
    "district_code": "087",
    "codename": "tan_duong"
  },
  {
    "code": "02968",
    "name": "Thượng Hà",
    "name_en": "Thuong Ha",
    "full_name": "Xã Thượng Hà",
    "full_name_en": "Thuong Ha Commune",
    "type": "xã",
    "district_code": "087",
    "codename": "thuong_ha"
  },
  {
    "code": "02971",
    "name": "Kim Sơn",
    "name_en": "Kim Son",
    "full_name": "Xã Kim Sơn",
    "full_name_en": "Kim Son Commune",
    "type": "xã",
    "district_code": "087",
    "codename": "kim_son"
  },
  {
    "code": "02974",
    "name": "Cam Cọn",
    "name_en": "Cam Con",
    "full_name": "Xã Cam Cọn",
    "full_name_en": "Cam Con Commune",
    "type": "xã",
    "district_code": "087",
    "codename": "cam_con"
  },
  {
    "code": "02977",
    "name": "Minh Tân",
    "name_en": "Minh Tan",
    "full_name": "Xã Minh Tân",
    "full_name_en": "Minh Tan Commune",
    "type": "xã",
    "district_code": "087",
    "codename": "minh_tan"
  },
  {
    "code": "02980",
    "name": "Xuân Thượng",
    "name_en": "Xuan Thuong",
    "full_name": "Xã Xuân Thượng",
    "full_name_en": "Xuan Thuong Commune",
    "type": "xã",
    "district_code": "087",
    "codename": "xuan_thuong"
  },
  {
    "code": "02983",
    "name": "Việt Tiến",
    "name_en": "Viet Tien",
    "full_name": "Xã Việt Tiến",
    "full_name_en": "Viet Tien Commune",
    "type": "xã",
    "district_code": "087",
    "codename": "viet_tien"
  },
  {
    "code": "02986",
    "name": "Yên Sơn",
    "name_en": "Yen Son",
    "full_name": "Xã Yên Sơn",
    "full_name_en": "Yen Son Commune",
    "type": "xã",
    "district_code": "087",
    "codename": "yen_son"
  },
  {
    "code": "02989",
    "name": "Bảo Hà",
    "name_en": "Bao Ha",
    "full_name": "Xã Bảo Hà",
    "full_name_en": "Bao Ha Commune",
    "type": "xã",
    "district_code": "087",
    "codename": "bao_ha"
  },
  {
    "code": "02992",
    "name": "Lương Sơn",
    "name_en": "Luong Son",
    "full_name": "Xã Lương Sơn",
    "full_name_en": "Luong Son Commune",
    "type": "xã",
    "district_code": "087",
    "codename": "luong_son"
  },
  {
    "code": "02998",
    "name": "Phúc Khánh",
    "name_en": "Phuc Khanh",
    "full_name": "Xã Phúc Khánh",
    "full_name_en": "Phuc Khanh Commune",
    "type": "xã",
    "district_code": "087",
    "codename": "phuc_khanh"
  }
]