[
  {
    "code": "03319",
    "name": "Mường Pồn",
    "name_en": "Muong Pon",
    "full_name": "Xã Mường Pồn",
    "full_name_en": "Muong Pon Commune",
    "type": "xã",
    "district_code": "100",
    "codename": "muong_pon"
  },
  {
    "code": "03322",
    "name": "Thanh Nưa",
    "name_en": "Thanh Nua",
    "full_name": "Xã Thanh Nưa",
    "full_name_en": "Thanh Nua Commune",
    "type": "xã",
    "district_code": "100",
    "codename": "thanh_nua"
  },
  {
    "code": "03323",
    "name": "Hua Thanh",
    "name_en": "Hua Thanh",
    "full_name": "Xã Hua Thanh",
    "full_name_en": "Hua Thanh Commune",
    "type": "xã",
    "district_code": "100",
    "codename": "hua_thanh"
  },
  {
    "code": "03328",
    "name": "Thanh Luông",
    "name_en": "Thanh Luong",
    "full_name": "Xã Thanh Luông",
    "full_name_en": "Thanh Luong Commune",
    "type": "xã",
    "district_code": "100",
    "codename": "thanh_luong"
  },
  {
    "code": "03331",
    "name": "Thanh Hưng",
    "name_en": "Thanh Hung",
    "full_name": "Xã Thanh Hưng",
    "full_name_en": "Thanh Hung Commune",
    "type": "xã",
    "district_code": "100",
    "codename": "thanh_hung"
  },
  {
    "code": "03334",
    "name": "Thanh Xương",
    "name_en": "Thanh Xuong",
    "full_name": "Xã Thanh Xương",
    "full_name_en": "Thanh Xuong Commune",
    "type": "xã",
    "district_code": "100",
    "codename": "thanh_xuong"
  },
  {
    "code": "03337",
    "name": "Thanh Chăn",
    "name_en": "Thanh Chan",
    "full_name": "Xã Thanh Chăn",
    "full_name_en": "Thanh Chan Commune",
    "type": "xã",
    "district_code": "100",
    "codename": "thanh_chan"
  },
  {
    "code": "03340",
    "name": "Pa Thơm",
    "name_en": "Pa Thom",
    "full_name": "Xã Pa Thơm",
    "full_name_en": "Pa Thom Commune",
    "type": "xã",
    "district_code": "100",
    "codename": "pa_thom"
  },
  {
    "code": "03343",
    "name": "Thanh An",
    "name_en": "Thanh An",
    "full_name": "Xã Thanh An",
    "full_name_en": "Thanh An Commune",
    "type": "xã",
    "district_code": "100",
    "codename": "thanh_an"
  },
  {
    "code": "03346",
    "name": "Thanh Yên",
    "name_en": "Thanh Yen",
    "full_name": "Xã Thanh Yên",
    "full_name_en": "Thanh Yen Commune",
    "type": "xã",
    "district_code": "100",
    "codename": "thanh_yen"
  },
  {
    "code": "03349",
    "name": "Noong Luống",
    "name_en": "Noong Luong",
    "full_name": "Xã Noong Luống",
    "full_name_en": "Noong Luong Commune",
    "type": "xã",
    "district_code": "100",
    "codename": "noong_luong"
  },
  {
    "code": "03352",
    "name": "Noọng Hẹt",
    "name_en": "Noong Het",
    "full_name": "Xã Noọng Hẹt",
    "full_name_en": "Noong Het Commune",
    "type": "xã",
    "district_code": "100",
    "codename": "noong_het"
  },
  {
    "code": "03355",
    "name": "Sam Mứn",
    "name_en": "Sam Mun",
    "full_name": "Xã Sam Mứn",
    "full_name_en": "Sam Mun Commune",
    "type": "xã",
    "district_code": "100",
    "codename": "sam_mun"
  },
  {
    "code": "03356",
    "name": "Pom Lót",
    "name_en": "Pom Lot",
    "full_name": "Xã Pom Lót",
    "full_name_en": "Pom Lot Commune",
    "type": "xã",
    "district_code": "100",
    "codename": "pom_lot"
  },
  {
    "code": "03358",
    "name": "Núa Ngam",
    "name_en": "Nua Ngam",
    "full_name": "Xã Núa Ngam",
    "full_name_en": "Nua Ngam Commune",
    "type": "xã",
    "district_code": "100",
    "codename": "nua_ngam"
  },
  {
    "code": "03359",
    "name": "Hẹ Muông",
    "name_en": "He Muong",
    "full_name": "Xã Hẹ Muông",
    "full_name_en": "He Muong Commune",
    "type": "xã",
    "district_code": "100",
    "codename": "he_muong"
  },
  {
    "code": "03361",
    "name": "Na Ư",
    "name_en": "Na U",
    "full_name": "Xã Na Ư",
    "full_name_en": "Na U Commune",
    "type": "xã",
    "district_code": "100",
    "codename": "na_u"
  },
  {
    "code": "03364",
    "name": "Mường Nhà",
    "name_en": "Muong Nha",
    "full_name": "Xã Mường Nhà",
    "full_name_en": "Muong Nha Commune",
    "type": "xã",
    "district_code": "100",
    "codename": "muong_nha"
  },
  {
    "code": "03365",
    "name": "Na Tông",
    "name_en": "Na Tong",
    "full_name": "Xã Na Tông",
    "full_name_en": "Na Tong Commune",
    "type": "xã",
    "district_code": "100",
    "codename": "na_tong"
  },
  {
    "code": "03367",
    "name": "Mường Lói",
    "name_en": "Muong Loi",
    "full_name": "Xã Mường Lói",
    "full_name_en": "Muong Loi Commune",
    "type": "xã",
    "district_code": "100",
    "codename": "muong_loi"
  },
  {
    "code": "03368",
    "name": "Phu Luông",
    "name_en": "Phu Luong",
    "full_name": "Xã Phu Luông",
    "full_name_en": "Phu Luong Commune",
    "type": "xã",
    "district_code": "100",
    "codename": "phu_luong"
  }
]