[
  {
    "code": "08662",
    "name": "Đào Xá",
    "name_en": "Dao Xa",
    "full_name": "Xã Đào Xá",
    "full_name_en": "Dao Xa Commune",
    "type": "xã",
    "district_code": "239",
    "codename": "dao_xa"
  },
  {
    "code": "08665",
    "name": "Thạch Đồng",
    "name_en": "Thach Dong",
    "full_name": "Xã Thạch Đồng",
    "full_name_en": "Thach Dong Commune",
    "type": "xã",
    "district_code": "239",
    "codename": "thach_dong"
  },
  {
    "code": "08668",
    "name": "Xuân Lộc",
    "name_en": "Xuan Loc",
    "full_name": "Xã Xuân Lộc",
    "full_name_en": "Xuan Loc Commune",
    "type": "xã",
    "district_code": "239",
    "codename": "xuan_loc"
  },
  {
    "code": "08671",
    "name": "Tân Phương",
    "name_en": "Tan Phuong",
    "full_name": "Xã Tân Phương",
    "full_name_en": "Tan Phuong Commune",
    "type": "xã",
    "district_code": "239",
    "codename": "tan_phuong"
  },
  {
    "code": "08674",
    "name": "Thanh Thủy",
    "name_en": "Thanh Thuy",
    "full_name": "Thị trấn Thanh Thủy",
    "full_name_en": "Thanh Thuy Township",
    "type": "thị trấn",
    "district_code": "239",
    "codename": "thanh_thuy"
  },
  {
    "code": "08677",
    "name": "Sơn Thủy",
    "name_en": "Son Thuy",
    "full_name": "Xã Sơn Thủy",
    "full_name_en": "Son Thuy Commune",
    "type": "xã",
    "district_code": "239",
    "codename": "son_thuy"
  },
  {
    "code": "08680",
    "name": "Bảo Yên",
    "name_en": "Bao Yen",
    "full_name": "Xã Bảo Yên",
    "full_name_en": "Bao Yen Commune",
    "type": "xã",
    "district_code": "239",
    "codename": "bao_yen"
  },
  {
    "code": "08683",
    "name": "Đoan Hạ",
    "name_en": "Doan Ha",
    "full_name": "Xã Đoan Hạ",
    "full_name_en": "Doan Ha Commune",
    "type": "xã",
    "district_code": "239",
    "codename": "doan_ha"
  },
  {
    "code": "08686",
    "name": "Đồng Trung",
    "name_en": "Dong Trung",
    "full_name": "Xã Đồng Trung",
    "full_name_en": "Dong Trung Commune",
    "type": "xã",
    "district_code": "239",
    "codename": "dong_trung"
  },
  {
    "code": "08689",
    "name": "Hoàng Xá",
    "name_en": "Hoang Xa",
    "full_name": "Xã Hoàng Xá",
    "full_name_en": "Hoang Xa Commune",
    "type": "xã",
    "district_code": "239",
    "codename": "hoang_xa"
  },
  {
    "code": "08701",
    "name": "Tu Vũ",
    "name_en": "Tu Vu",
    "full_name": "Xã Tu Vũ",
    "full_name_en": "Tu Vu Commune",
    "type": "xã",
    "district_code": "239",
    "codename": "tu_vu"
  }
]