[
  {
    "code": "08935",
    "name": "Hương Canh",
    "name_en": "Huong Canh",
    "full_name": "Thị trấn Hương Canh",
    "full_name_en": "Huong Canh Township",
    "type": "thị trấn",
    "district_code": "249",
    "codename": "huong_canh"
  },
  {
    "code": "08936",
    "name": "Gia Khánh",
    "name_en": "Gia Khanh",
    "full_name": "Thị trấn Gia Khánh",
    "full_name_en": "Gia Khanh Township",
    "type": "thị trấn",
    "district_code": "249",
    "codename": "gia_khanh"
  },
  {
    "code": "08938",
    "name": "Trung Mỹ",
    "name_en": "Trung My",
    "full_name": "Xã Trung Mỹ",
    "full_name_en": "Trung My Commune",
    "type": "xã",
    "district_code": "249",
    "codename": "trung_my"
  },
  {
    "code": "08944",
    "name": "Bá Hiến",
    "name_en": "Ba Hien",
    "full_name": "Thị trấn Bá Hiến",
    "full_name_en": "Ba Hien Township",
    "type": "thị trấn",
    "district_code": "249",
    "codename": "ba_hien"
  },
  {
    "code": "08947",
    "name": "Thiện Kế",
    "name_en": "Thien Ke",
    "full_name": "Xã Thiện Kế",
    "full_name_en": "Thien Ke Commune",
    "type": "xã",
    "district_code": "249",
    "codename": "thien_ke"
  },
  {
    "code": "08950",
    "name": "Hương Sơn",
    "name_en": "Huong Son",
    "full_name": "Xã Hương Sơn",
    "full_name_en": "Huong Son Commune",
    "type": "xã",
    "district_code": "249",
    "codename": "huong_son"
  },
  {
    "code": "08953",
    "name": "Tam Hợp",
    "name_en": "Tam Hop",
    "full_name": "Xã Tam Hợp",
    "full_name_en": "Tam Hop Commune",
    "type": "xã",
    "district_code": "249",
    "codename": "tam_hop"
  },
  {
    "code": "08956",
    "name": "Quất Lưu",
    "name_en": "Quat Luu",
    "full_name": "Xã Quất Lưu",
    "full_name_en": "Quat Luu Commune",
    "type": "xã",
    "district_code": "249",
    "codename": "quat_luu"
  },
  {
    "code": "08959",
    "name": "Sơn Lôi",
    "name_en": "Son Loi",
    "full_name": "Xã Sơn Lôi",
    "full_name_en": "Son Loi Commune",
    "type": "xã",
    "district_code": "249",
    "codename": "son_loi"
  },
  {
    "code": "08962",
    "name": "Đạo Đức",
    "name_en": "Dao Duc",
    "full_name": "Thị trấn Đạo Đức",
    "full_name_en": "Dao Duc Township",
    "type": "thị trấn",
    "district_code": "249",
    "codename": "dao_duc"
  },
  {
    "code": "08965",
    "name": "Tân Phong",
    "name_en": "Tan Phong",
    "full_name": "Xã Tân Phong",
    "full_name_en": "Tan Phong Commune",
    "type": "xã",
    "district_code": "249",
    "codename": "tan_phong"
  },
  {
    "code": "08968",
    "name": "Thanh Lãng",
    "name_en": "Thanh Lang",
    "full_name": "Thị trấn Thanh Lãng",
    "full_name_en": "Thanh Lang Township",
    "type": "thị trấn",
    "district_code": "249",
    "codename": "thanh_lang"
  },
  {
    "code": "08971",
    "name": "Phú Xuân",
    "name_en": "Phu Xuan",
    "full_name": "Xã Phú Xuân",
    "full_name_en": "Phu Xuan Commune",
    "type": "xã",
    "district_code": "249",
    "codename": "phu_xuan"
  }
]