[
  {
    "code": "12142",
    "name": "Ân Thi",
    "name_en": "An Thi",
    "full_name": "Thị trấn Ân Thi",
    "full_name_en": "An Thi Township",
    "type": "thị trấn",
    "district_code": "329",
    "codename": "an_thi"
  },
  {
    "code": "12145",
    "name": "Phù Ủng",
    "name_en": "Phu Ung",
    "full_name": "Xã Phù Ủng",
    "full_name_en": "Phu Ung Commune",
    "type": "xã",
    "district_code": "329",
    "codename": "phu_ung"
  },
  {
    "code": "12148",
    "name": "Bắc Sơn",
    "name_en": "Bac Son",
    "full_name": "Xã Bắc Sơn",
    "full_name_en": "Bac Son Commune",
    "type": "xã",
    "district_code": "329",
    "codename": "bac_son"
  },
  {
    "code": "12151",
    "name": "Bãi Sậy",
    "name_en": "Bai Say",
    "full_name": "Xã Bãi Sậy",
    "full_name_en": "Bai Say Commune",
    "type": "xã",
    "district_code": "329",
    "codename": "bai_say"
  },
  {
    "code": "12154",
    "name": "Đào Dương",
    "name_en": "Dao Duong",
    "full_name": "Xã Đào Dương",
    "full_name_en": "Dao Duong Commune",
    "type": "xã",
    "district_code": "329",
    "codename": "dao_duong"
  },
  {
    "code": "12157",
    "name": "Quang Vinh",
    "name_en": "Quang Vinh",
    "full_name": "Xã Quang Vinh",
    "full_name_en": "Quang Vinh Commune",
    "type": "xã",
    "district_code": "329",
    "codename": "quang_vinh"
  },
  {
    "code": "12160",
    "name": "Vân Du",
    "name_en": "Van Du",
    "full_name": "Xã Vân Du",
    "full_name_en": "Van Du Commune",
    "type": "xã",
    "district_code": "329",
    "codename": "van_du"
  },
  {
    "code": "12166",
    "name": "Xuân Trúc",
    "name_en": "Xuan Truc",
    "full_name": "Xã Xuân Trúc",
    "full_name_en": "Xuan Truc Commune",
    "type": "xã",
    "district_code": "329",
    "codename": "xuan_truc"
  },
  {
    "code": "12169",
    "name": "Hoàng Hoa Thám",
    "name_en": "Hoang Hoa Tham",
    "full_name": "Xã Hoàng Hoa Thám",
    "full_name_en": "Hoang Hoa Tham Commune",
    "type": "xã",
    "district_code": "329",
    "codename": "hoang_hoa_tham"
  },
  {
    "code": "12172",
    "name": "Quảng Lãng",
    "name_en": "Quang Lang",
    "full_name": "Xã Quảng Lãng",
    "full_name_en": "Quang Lang Commune",
    "type": "xã",
    "district_code": "329",
    "codename": "quang_lang"
  },
  {
    "code": "12175",
    "name": "Đa Lộc",
    "name_en": "Da Loc",
    "full_name": "Xã Đa Lộc",
    "full_name_en": "Da Loc Commune",
    "type": "xã",
    "district_code": "329",
    "codename": "da_loc"
  },
  {
    "code": "12178",
    "name": "Đặng Lễ",
    "name_en": "Dang Le",
    "full_name": "Xã Đặng Lễ",
    "full_name_en": "Dang Le Commune",
    "type": "xã",
    "district_code": "329",
    "codename": "dang_le"
  },
  {
    "code": "12181",
    "name": "Cẩm Ninh",
    "name_en": "Cam Ninh",
    "full_name": "Xã Cẩm Ninh",
    "full_name_en": "Cam Ninh Commune",
    "type": "xã",
    "district_code": "329",
    "codename": "cam_ninh"
  },
  {
    "code": "12184",
    "name": "Nguyễn Trãi",
    "name_en": "Nguyen Trai",
    "full_name": "Xã Nguyễn Trãi",
    "full_name_en": "Nguyen Trai Commune",
    "type": "xã",
    "district_code": "329",
    "codename": "nguyen_trai"
  },
  {
    "code": "12190",
    "name": "Hồ Tùng Mậu",
    "name_en": "Ho Tung Mau",
    "full_name": "Xã Hồ Tùng Mậu",
    "full_name_en": "Ho Tung Mau Commune",
    "type": "xã",
    "district_code": "329",
    "codename": "ho_tung_mau"
  },
  {
    "code": "12193",
    "name": "Tiền Phong",
    "name_en": "Tien Phong",
    "full_name": "Xã Tiền Phong",
    "full_name_en": "Tien Phong Commune",
    "type": "xã",
    "district_code": "329",
    "codename": "tien_phong"
  },
  {
    "code": "12196",
    "name": "Hồng Quang",
    "name_en": "Hong Quang",
    "full_name": "Xã Hồng Quang",
    "full_name_en": "Hong Quang Commune",
    "type": "xã",
    "district_code": "329",
    "codename": "hong_quang"
  },
  {
    "code": "12202",
    "name": "Hạ Lễ",
    "name_en": "Ha Le",
    "full_name": "Xã Hạ Lễ",
    "full_name_en": "Ha Le Commune",
    "type": "xã",
    "district_code": "329",
    "codename": "ha_le"
  }
]