[
  {
    "code": "12433",
    "name": "Lê Hồng Phong",
    "name_en": "Le Hong Phong",
    "full_name": "Phường Lê Hồng Phong",
    "full_name_en": "Le Hong Phong Ward",
    "type": "phường",
    "district_code": "336",
    "codename": "le_hong_phong"
  },
  {
    "code": "12436",
    "name": "Bồ Xuyên",
    "name_en": "Bo Xuyen",
    "full_name": "Phường Bồ Xuyên",
    "full_name_en": "Bo Xuyen Ward",
    "type": "phường",
    "district_code": "336",
    "codename": "bo_xuyen"
  },
  {
    "code": "12439",
    "name": "Đề Thám",
    "name_en": "De Tham",
    "full_name": "Phường Đề Thám",
    "full_name_en": "De Tham Ward",
    "type": "phường",
    "district_code": "336",
    "codename": "de_tham"
  },
  {
    "code": "12442",
    "name": "Kỳ Bá",
    "name_en": "Ky Ba",
    "full_name": "Phường Kỳ Bá",
    "full_name_en": "Ky Ba Ward",
    "type": "phường",
    "district_code": "336",
    "codename": "ky_ba"
  },
  {
    "code": "12445",
    "name": "Quang Trung",
    "name_en": "Quang Trung",
    "full_name": "Phường Quang Trung",
    "full_name_en": "Quang Trung Ward",
    "type": "phường",
    "district_code": "336",
    "codename": "quang_trung"
  },
  {
    "code": "12448",
    "name": "Phú Khánh",
    "name_en": "Phu Khanh",
    "full_name": "Phường Phú Khánh",
    "full_name_en": "Phu Khanh Ward",
    "type": "phường",
    "district_code": "336",
    "codename": "phu_khanh"
  },
  {
    "code": "12451",
    "name": "Tiền Phong",
    "name_en": "Tien Phong",
    "full_name": "Phường Tiền Phong",
    "full_name_en": "Tien Phong Ward",
    "type": "phường",
    "district_code": "336",
    "codename": "tien_phong"
  },
  {
    "code": "12452",
    "name": "Trần Hưng Đạo",
    "name_en": "Tran Hung Dao",
    "full_name": "Phường Trần Hưng Đạo",
    "full_name_en": "Tran Hung Dao Ward",
    "type": "phường",
    "district_code": "336",
    "codename": "tran_hung_dao"
  },
  {
    "code": "12454",
    "name": "Trần Lãm",
    "name_en": "Tran Lam",
    "full_name": "Phường Trần Lãm",
    "full_name_en": "Tran Lam Ward",
    "type": "phường",
    "district_code": "336",
    "codename": "tran_lam"
  },
  {
    "code": "12457",
    "name": "Đông Hòa",
    "name_en": "Dong Hoa",
    "full_name": "Xã Đông Hòa",
    "full_name_en": "Dong Hoa Commune",
    "type": "xã",
    "district_code": "336",
    "codename": "dong_hoa"
  },
  {
    "code": "12460",
    "name": "Hoàng Diệu",
    "name_en": "Hoang Dieu",
    "full_name": "Phường Hoàng Diệu",
    "full_name_en": "Hoang Dieu Ward",
    "type": "phường",
    "district_code": "336",
    "codename": "hoang_dieu"
  },
  {
    "code": "12463",
    "name": "Phú Xuân",
    "name_en": "Phu Xuan",
    "full_name": "Xã Phú Xuân",
    "full_name_en": "Phu Xuan Commune",
    "type": "xã",
    "district_code": "336",
    "codename": "phu_xuan"
  },
  {
    "code": "12466",
    "name": "Vũ Phúc",
    "name_en": "Vu Phuc",
    "full_name": "Xã Vũ Phúc",
    "full_name_en": "Vu Phuc Commune",
    "type": "xã",
    "district_code": "336",
    "codename": "vu_phuc"
  },
  {
    "code": "12469",
    "name": "Vũ Chính",
    "name_en": "Vu Chinh",
    "full_name": "Xã Vũ Chính",
    "full_name_en": "Vu Chinh Commune",
    "type": "xã",
    "district_code": "336",
    "codename": "vu_chinh"
  },
  {
    "code": "12817",
    "name": "Đông Mỹ",
    "name_en": "Dong My",
    "full_name": "Xã Đông Mỹ",
    "full_name_en": "Dong My Commune",
    "type": "xã",
    "district_code": "336",
    "codename": "dong_my"
  },
  {
    "code": "12820",
    "name": "Đông Thọ",
    "name_en": "Dong Tho",
    "full_name": "Xã Đông Thọ",
    "full_name_en": "Dong Tho Commune",
    "type": "xã",
    "district_code": "336",
    "codename": "dong_tho"
  },
  {
    "code": "13084",
    "name": "Vũ Đông",
    "name_en": "Vu Dong",
    "full_name": "Xã Vũ Đông",
    "full_name_en": "Vu Dong Commune",
    "type": "xã",
    "district_code": "336",
    "codename": "vu_dong"
  },
  {
    "code": "13108",
    "name": "Vũ Lạc",
    "name_en": "Vu Lac",
    "full_name": "Xã Vũ Lạc",
    "full_name_en": "Vu Lac Commune",
    "type": "xã",
    "district_code": "336",
    "codename": "vu_lac"
  },
  {
    "code": "13225",
    "name": "Tân Bình",
    "name_en": "Tan Binh",
    "full_name": "Xã Tân Bình",
    "full_name_en": "Tan Binh Commune",
    "type": "xã",
    "district_code": "336",
    "codename": "tan_binh"
  }
]