[
  {
    "code": "14869",
    "name": "Hồi Xuân",
    "name_en": "Hoi Xuan",
    "full_name": "Thị trấn Hồi Xuân",
    "full_name_en": "Hoi Xuan Township",
    "type": "thị trấn",
    "district_code": "385",
    "codename": "hoi_xuan"
  },
  {
    "code": "14872",
    "name": "Thành Sơn",
    "name_en": "Thanh Son",
    "full_name": "Xã Thành Sơn",
    "full_name_en": "Thanh Son Commune",
    "type": "xã",
    "district_code": "385",
    "codename": "thanh_son"
  },
  {
    "code": "14875",
    "name": "Trung Sơn",
    "name_en": "Trung Son",
    "full_name": "Xã Trung Sơn",
    "full_name_en": "Trung Son Commune",
    "type": "xã",
    "district_code": "385",
    "codename": "trung_son"
  },
  {
    "code": "14878",
    "name": "Phú Thanh",
    "name_en": "Phu Thanh",
    "full_name": "Xã Phú Thanh",
    "full_name_en": "Phu Thanh Commune",
    "type": "xã",
    "district_code": "385",
    "codename": "phu_thanh"
  },
  {
    "code": "14881",
    "name": "Trung Thành",
    "name_en": "Trung Thanh",
    "full_name": "Xã Trung Thành",
    "full_name_en": "Trung Thanh Commune",
    "type": "xã",
    "district_code": "385",
    "codename": "trung_thanh"
  },
  {
    "code": "14884",
    "name": "Phú Lệ",
    "name_en": "Phu Le",
    "full_name": "Xã Phú Lệ",
    "full_name_en": "Phu Le Commune",
    "type": "xã",
    "district_code": "385",
    "codename": "phu_le"
  },
  {
    "code": "14887",
    "name": "Phú Sơn",
    "name_en": "Phu Son",
    "full_name": "Xã Phú Sơn",
    "full_name_en": "Phu Son Commune",
    "type": "xã",
    "district_code": "385",
    "codename": "phu_son"
  },
  {
    "code": "14890",
    "name": "Phú Xuân",
    "name_en": "Phu Xuan",
    "full_name": "Xã Phú Xuân",
    "full_name_en": "Phu Xuan Commune",
    "type": "xã",
    "district_code": "385",
    "codename": "phu_xuan"
  },
  {
    "code": "14896",
    "name": "Hiền Chung",
    "name_en": "Hien Chung",
    "full_name": "Xã Hiền Chung",
    "full_name_en": "Hien Chung Commune",
    "type": "xã",
    "district_code": "385",
    "codename": "hien_chung"
  },
  {
    "code": "14899",
    "name": "Hiền Kiệt",
    "name_en": "Hien Kiet",
    "full_name": "Xã Hiền Kiệt",
    "full_name_en": "Hien Kiet Commune",
    "type": "xã",
    "district_code": "385",
    "codename": "hien_kiet"
  },
  {
    "code": "14902",
    "name": "Nam Tiến",
    "name_en": "Nam Tien",
    "full_name": "Xã Nam Tiến",
    "full_name_en": "Nam Tien Commune",
    "type": "xã",
    "district_code": "385",
    "codename": "nam_tien"
  },
  {
    "code": "14908",
    "name": "Thiên Phủ",
    "name_en": "Thien Phu",
    "full_name": "Xã Thiên Phủ",
    "full_name_en": "Thien Phu Commune",
    "type": "xã",
    "district_code": "385",
    "codename": "thien_phu"
  },
  {
    "code": "14911",
    "name": "Phú Nghiêm",
    "name_en": "Phu Nghiem",
    "full_name": "Xã Phú Nghiêm",
    "full_name_en": "Phu Nghiem Commune",
    "type": "xã",
    "district_code": "385",
    "codename": "phu_nghiem"
  },
  {
    "code": "14914",
    "name": "Nam Xuân",
    "name_en": "Nam Xuan",
    "full_name": "Xã Nam Xuân",
    "full_name_en": "Nam Xuan Commune",
    "type": "xã",
    "district_code": "385",
    "codename": "nam_xuan"
  },
  {
    "code": "14917",
    "name": "Nam Động",
    "name_en": "Nam Dong",
    "full_name": "Xã Nam Động",
    "full_name_en": "Nam Dong Commune",
    "type": "xã",
    "district_code": "385",
    "codename": "nam_dong"
  }
]