[
  {
    "code": "16941",
    "name": "Nghĩa Đàn",
    "name_en": "Nghia Dan",
    "full_name": "Thị trấn Nghĩa Đàn",
    "full_name_en": "Nghia Dan Township",
    "type": "thị trấn",
    "district_code": "419",
    "codename": "nghia_dan"
  },
  {
    "code": "16942",
    "name": "Nghĩa Mai",
    "name_en": "Nghia Mai",
    "full_name": "Xã Nghĩa Mai",
    "full_name_en": "Nghia Mai Commune",
    "type": "xã",
    "district_code": "419",
    "codename": "nghia_mai"
  },
  {
    "code": "16945",
    "name": "Nghĩa Yên",
    "name_en": "Nghia Yen",
    "full_name": "Xã Nghĩa Yên",
    "full_name_en": "Nghia Yen Commune",
    "type": "xã",
    "district_code": "419",
    "codename": "nghia_yen"
  },
  {
    "code": "16948",
    "name": "Nghĩa Lạc",
    "name_en": "Nghia Lac",
    "full_name": "Xã Nghĩa Lạc",
    "full_name_en": "Nghia Lac Commune",
    "type": "xã",
    "district_code": "419",
    "codename": "nghia_lac"
  },
  {
    "code": "16951",
    "name": "Nghĩa Lâm",
    "name_en": "Nghia Lam",
    "full_name": "Xã Nghĩa Lâm",
    "full_name_en": "Nghia Lam Commune",
    "type": "xã",
    "district_code": "419",
    "codename": "nghia_lam"
  },
  {
    "code": "16954",
    "name": "Nghĩa Sơn",
    "name_en": "Nghia Son",
    "full_name": "Xã Nghĩa Sơn",
    "full_name_en": "Nghia Son Commune",
    "type": "xã",
    "district_code": "419",
    "codename": "nghia_son"
  },
  {
    "code": "16957",
    "name": "Nghĩa Lợi",
    "name_en": "Nghia Loi",
    "full_name": "Xã Nghĩa Lợi",
    "full_name_en": "Nghia Loi Commune",
    "type": "xã",
    "district_code": "419",
    "codename": "nghia_loi"
  },
  {
    "code": "16960",
    "name": "Nghĩa Bình",
    "name_en": "Nghia Binh",
    "full_name": "Xã Nghĩa Bình",
    "full_name_en": "Nghia Binh Commune",
    "type": "xã",
    "district_code": "419",
    "codename": "nghia_binh"
  },
  {
    "code": "16966",
    "name": "Nghĩa Minh",
    "name_en": "Nghia Minh",
    "full_name": "Xã Nghĩa Minh",
    "full_name_en": "Nghia Minh Commune",
    "type": "xã",
    "district_code": "419",
    "codename": "nghia_minh"
  },
  {
    "code": "16969",
    "name": "Nghĩa Thọ",
    "name_en": "Nghia Tho",
    "full_name": "Xã Nghĩa Thọ",
    "full_name_en": "Nghia Tho Commune",
    "type": "xã",
    "district_code": "419",
    "codename": "nghia_tho"
  },
  {
    "code": "16972",
    "name": "Nghĩa Hưng",
    "name_en": "Nghia Hung",
    "full_name": "Xã Nghĩa Hưng",
    "full_name_en": "Nghia Hung Commune",
    "type": "xã",
    "district_code": "419",
    "codename": "nghia_hung"
  },
  {
    "code": "16975",
    "name": "Nghĩa Hồng",
    "name_en": "Nghia Hong",
    "full_name": "Xã Nghĩa Hồng",
    "full_name_en": "Nghia Hong Commune",
    "type": "xã",
    "district_code": "419",
    "codename": "nghia_hong"
  },
  {
    "code": "16981",
    "name": "Nghĩa Trung",
    "name_en": "Nghia Trung",
    "full_name": "Xã Nghĩa Trung",
    "full_name_en": "Nghia Trung Commune",
    "type": "xã",
    "district_code": "419",
    "codename": "nghia_trung"
  },
  {
    "code": "16984",
    "name": "Nghĩa Hội",
    "name_en": "Nghia Hoi",
    "full_name": "Xã Nghĩa Hội",
    "full_name_en": "Nghia Hoi Commune",
    "type": "xã",
    "district_code": "419",
    "codename": "nghia_hoi"
  },
  {
    "code": "16987",
    "name": "Nghĩa Thành",
    "name_en": "Nghia Thanh",
    "full_name": "Xã Nghĩa Thành",
    "full_name_en": "Nghia Thanh Commune",
    "type": "xã",
    "district_code": "419",
    "codename": "nghia_thanh"
  },
  {
    "code": "17020",
    "name": "Nghĩa Đức",
    "name_en": "Nghia Duc",
    "full_name": "Xã Nghĩa Đức",
    "full_name_en": "Nghia Duc Commune",
    "type": "xã",
    "district_code": "419",
    "codename": "nghia_duc"
  },
  {
    "code": "17023",
    "name": "Nghĩa An",
    "name_en": "Nghia An",
    "full_name": "Xã Nghĩa An",
    "full_name_en": "Nghia An Commune",
    "type": "xã",
    "district_code": "419",
    "codename": "nghia_an"
  },
  {
    "code": "17026",
    "name": "Nghĩa Long",
    "name_en": "Nghia Long",
    "full_name": "Xã Nghĩa Long",
    "full_name_en": "Nghia Long Commune",
    "type": "xã",
    "district_code": "419",
    "codename": "nghia_long"
  },
  {
    "code": "17029",
    "name": "Nghĩa Lộc",
    "name_en": "Nghia Loc",
    "full_name": "Xã Nghĩa Lộc",
    "full_name_en": "Nghia Loc Commune",
    "type": "xã",
    "district_code": "419",
    "codename": "nghia_loc"
  },
  {
    "code": "17032",
    "name": "Nghĩa Khánh",
    "name_en": "Nghia Khanh",
    "full_name": "Xã Nghĩa Khánh",
    "full_name_en": "Nghia Khanh Commune",
    "type": "xã",
    "district_code": "419",
    "codename": "nghia_khanh"
  }
]