[
  {
    "code": "18313",
    "name": "Vũ Quang",
    "name_en": "Vu Quang",
    "full_name": "Thị trấn Vũ Quang",
    "full_name_en": "Vu Quang Township",
    "type": "thị trấn",
    "district_code": "441",
    "codename": "vu_quang"
  },
  {
    "code": "18316",
    "name": "Ân Phú",
    "name_en": "An Phu",
    "full_name": "Xã Ân Phú",
    "full_name_en": "An Phu Commune",
    "type": "xã",
    "district_code": "441",
    "codename": "an_phu"
  },
  {
    "code": "18319",
    "name": "Đức Giang",
    "name_en": "Duc Giang",
    "full_name": "Xã Đức Giang",
    "full_name_en": "Duc Giang Commune",
    "type": "xã",
    "district_code": "441",
    "codename": "duc_giang"
  },
  {
    "code": "18322",
    "name": "Đức Lĩnh",
    "name_en": "Duc Linh",
    "full_name": "Xã Đức Lĩnh",
    "full_name_en": "Duc Linh Commune",
    "type": "xã",
    "district_code": "441",
    "codename": "duc_linh"
  },
  {
    "code": "18325",
    "name": "Thọ Điền",
    "name_en": "Tho Dien",
    "full_name": "Xã Thọ Điền",
    "full_name_en": "Tho Dien Commune",
    "type": "xã",
    "district_code": "441",
    "codename": "tho_dien"
  },
  {
    "code": "18328",
    "name": "Đức Hương",
    "name_en": "Duc Huong",
    "full_name": "Xã Đức Hương",
    "full_name_en": "Duc Huong Commune",
    "type": "xã",
    "district_code": "441",
    "codename": "duc_huong"
  },
  {
    "code": "18331",
    "name": "Đức Bồng",
    "name_en": "Duc Bong",
    "full_name": "Xã Đức Bồng",
    "full_name_en": "Duc Bong Commune",
    "type": "xã",
    "district_code": "441",
    "codename": "duc_bong"
  },
  {
    "code": "18334",
    "name": "Đức Liên",
    "name_en": "Duc Lien",
    "full_name": "Xã Đức Liên",
    "full_name_en": "Duc Lien Commune",
    "type": "xã",
    "district_code": "441",
    "codename": "duc_lien"
  },
  {
    "code": "18340",
    "name": "Hương Minh",
    "name_en": "Huong Minh",
    "full_name": "Xã Hương Minh",
    "full_name_en": "Huong Minh Commune",
    "type": "xã",
    "district_code": "441",
    "codename": "huong_minh"
  },
  {
    "code": "18343",
    "name": "Quang Thọ",
    "name_en": "Quang Tho",
    "full_name": "Xã Quang Thọ",
    "full_name_en": "Quang Tho Commune",
    "type": "xã",
    "district_code": "441",
    "codename": "quang_tho"
  }
]