[
  {
    "code": "21853",
    "name": "Ngô Mây",
    "name_en": "Ngo May",
    "full_name": "Thị trấn Ngô Mây",
    "full_name_en": "Ngo May Township",
    "type": "thị trấn",
    "district_code": "548",
    "codename": "ngo_may"
  },
  {
    "code": "21856",
    "name": "Cát Sơn",
    "name_en": "Cat Son",
    "full_name": "Xã Cát Sơn",
    "full_name_en": "Cat Son Commune",
    "type": "xã",
    "district_code": "548",
    "codename": "cat_son"
  },
  {
    "code": "21859",
    "name": "Cát Minh",
    "name_en": "Cat Minh",
    "full_name": "Xã Cát Minh",
    "full_name_en": "Cat Minh Commune",
    "type": "xã",
    "district_code": "548",
    "codename": "cat_minh"
  },
  {
    "code": "21862",
    "name": "Cát Khánh",
    "name_en": "Cat Khanh",
    "full_name": "Thị trấn Cát Khánh",
    "full_name_en": "Cat Khanh Township",
    "type": "thị trấn",
    "district_code": "548",
    "codename": "cat_khanh"
  },
  {
    "code": "21865",
    "name": "Cát Tài",
    "name_en": "Cat Tai",
    "full_name": "Xã Cát Tài",
    "full_name_en": "Cat Tai Commune",
    "type": "xã",
    "district_code": "548",
    "codename": "cat_tai"
  },
  {
    "code": "21868",
    "name": "Cát Lâm",
    "name_en": "Cat Lam",
    "full_name": "Xã Cát Lâm",
    "full_name_en": "Cat Lam Commune",
    "type": "xã",
    "district_code": "548",
    "codename": "cat_lam"
  },
  {
    "code": "21871",
    "name": "Cát Hanh",
    "name_en": "Cat Hanh",
    "full_name": "Xã Cát Hanh",
    "full_name_en": "Cat Hanh Commune",
    "type": "xã",
    "district_code": "548",
    "codename": "cat_hanh"
  },
  {
    "code": "21874",
    "name": "Cát Thành",
    "name_en": "Cat Thanh",
    "full_name": "Xã Cát Thành",
    "full_name_en": "Cat Thanh Commune",
    "type": "xã",
    "district_code": "548",
    "codename": "cat_thanh"
  },
  {
    "code": "21877",
    "name": "Cát Trinh",
    "name_en": "Cat Trinh",
    "full_name": "Xã Cát Trinh",
    "full_name_en": "Cat Trinh Commune",
    "type": "xã",
    "district_code": "548",
    "codename": "cat_trinh"
  },
  {
    "code": "21880",
    "name": "Cát Hải",
    "name_en": "Cat Hai",
    "full_name": "Xã Cát Hải",
    "full_name_en": "Cat Hai Commune",
    "type": "xã",
    "district_code": "548",
    "codename": "cat_hai"
  },
  {
    "code": "21883",
    "name": "Cát Hiệp",
    "name_en": "Cat Hiep",
    "full_name": "Xã Cát Hiệp",
    "full_name_en": "Cat Hiep Commune",
    "type": "xã",
    "district_code": "548",
    "codename": "cat_hiep"
  },
  {
    "code": "21886",
    "name": "Cát Nhơn",
    "name_en": "Cat Nhon",
    "full_name": "Xã Cát Nhơn",
    "full_name_en": "Cat Nhon Commune",
    "type": "xã",
    "district_code": "548",
    "codename": "cat_nhon"
  },
  {
    "code": "21889",
    "name": "Cát Hưng",
    "name_en": "Cat Hung",
    "full_name": "Xã Cát Hưng",
    "full_name_en": "Cat Hung Commune",
    "type": "xã",
    "district_code": "548",
    "codename": "cat_hung"
  },
  {
    "code": "21892",
    "name": "Cát Tường",
    "name_en": "Cat Tuong",
    "full_name": "Xã Cát Tường",
    "full_name_en": "Cat Tuong Commune",
    "type": "xã",
    "district_code": "548",
    "codename": "cat_tuong"
  },
  {
    "code": "21895",
    "name": "Cát Tân",
    "name_en": "Cat Tan",
    "full_name": "Xã Cát Tân",
    "full_name_en": "Cat Tan Commune",
    "type": "xã",
    "district_code": "548",
    "codename": "cat_tan"
  },
  {
    "code": "21898",
    "name": "Cát Tiến",
    "name_en": "Cat Tien",
    "full_name": "Thị trấn Cát Tiến",
    "full_name_en": "Cat Tien Township",
    "type": "thị trấn",
    "district_code": "548",
    "codename": "cat_tien"
  },
  {
    "code": "21901",
    "name": "Cát Thắng",
    "name_en": "Cat Thang",
    "full_name": "Xã Cát Thắng",
    "full_name_en": "Cat Thang Commune",
    "type": "xã",
    "district_code": "548",
    "codename": "cat_thang"
  },
  {
    "code": "21904",
    "name": "Cát Chánh",
    "name_en": "Cat Chanh",
    "full_name": "Xã Cát Chánh",
    "full_name_en": "Cat Chanh Commune",
    "type": "xã",
    "district_code": "548",
    "codename": "cat_chanh"
  }
]