[
  {
    "code": "22051",
    "name": "Xuân Phú",
    "name_en": "Xuan Phu",
    "full_name": "Phường Xuân Phú",
    "full_name_en": "Xuan Phu Ward",
    "type": "phường",
    "district_code": "557",
    "codename": "xuan_phu"
  },
  {
    "code": "22052",
    "name": "Xuân Lâm",
    "name_en": "Xuan Lam",
    "full_name": "Xã Xuân Lâm",
    "full_name_en": "Xuan Lam Commune",
    "type": "xã",
    "district_code": "557",
    "codename": "xuan_lam"
  },
  {
    "code": "22053",
    "name": "Xuân Thành",
    "name_en": "Xuan Thanh",
    "full_name": "Phường Xuân Thành",
    "full_name_en": "Xuan Thanh Ward",
    "type": "phường",
    "district_code": "557",
    "codename": "xuan_thanh"
  },
  {
    "code": "22054",
    "name": "Xuân Hải",
    "name_en": "Xuan Hai",
    "full_name": "Xã Xuân Hải",
    "full_name_en": "Xuan Hai Commune",
    "type": "xã",
    "district_code": "557",
    "codename": "xuan_hai"
  },
  {
    "code": "22057",
    "name": "Xuân Lộc",
    "name_en": "Xuan Loc",
    "full_name": "Xã Xuân Lộc",
    "full_name_en": "Xuan Loc Commune",
    "type": "xã",
    "district_code": "557",
    "codename": "xuan_loc"
  },
  {
    "code": "22060",
    "name": "Xuân Bình",
    "name_en": "Xuan Binh",
    "full_name": "Xã Xuân Bình",
    "full_name_en": "Xuan Binh Commune",
    "type": "xã",
    "district_code": "557",
    "codename": "xuan_binh"
  },
  {
    "code": "22066",
    "name": "Xuân Cảnh",
    "name_en": "Xuan Canh",
    "full_name": "Xã Xuân Cảnh",
    "full_name_en": "Xuan Canh Commune",
    "type": "xã",
    "district_code": "557",
    "codename": "xuan_canh"
  },
  {
    "code": "22069",
    "name": "Xuân Thịnh",
    "name_en": "Xuan Thinh",
    "full_name": "Xã Xuân Thịnh",
    "full_name_en": "Xuan Thinh Commune",
    "type": "xã",
    "district_code": "557",
    "codename": "xuan_thinh"
  },
  {
    "code": "22072",
    "name": "Xuân Phương",
    "name_en": "Xuan Phuong",
    "full_name": "Xã Xuân Phương",
    "full_name_en": "Xuan Phuong Commune",
    "type": "xã",
    "district_code": "557",
    "codename": "xuan_phuong"
  },
  {
    "code": "22073",
    "name": "Xuân Yên",
    "name_en": "Xuan Yen",
    "full_name": "Phường Xuân Yên",
    "full_name_en": "Xuan Yen Ward",
    "type": "phường",
    "district_code": "557",
    "codename": "xuan_yen"
  },
  {
    "code": "22075",
    "name": "Xuân Thọ 1",
    "name_en": "Xuan Tho 1",
    "full_name": "Xã Xuân Thọ 1",
    "full_name_en": "Commune Xuan Tho 1",
    "type": "xã",
    "district_code": "557",
    "codename": "xuan_tho_1"
  },
  {
    "code": "22076",
    "name": "Xuân Đài",
    "name_en": "Xuan Dai",
    "full_name": "Phường Xuân Đài",
    "full_name_en": "Xuan Dai Ward",
    "type": "phường",
    "district_code": "557",
    "codename": "xuan_dai"
  },
  {
    "code": "22078",
    "name": "Xuân Thọ 2",
    "name_en": "Xuan Tho 2",
    "full_name": "Xã Xuân Thọ 2",
    "full_name_en": "Commune Xuan Tho 2",
    "type": "xã",
    "district_code": "557",
    "codename": "xuan_tho_2"
  }
]