[
  {
    "code": "23281",
    "name": "Quang Trung",
    "name_en": "Quang Trung",
    "full_name": "Phường Quang Trung",
    "full_name_en": "Quang Trung Ward",
    "type": "phường",
    "district_code": "608",
    "codename": "quang_trung"
  },
  {
    "code": "23284",
    "name": "Duy Tân",
    "name_en": "Duy Tan",
    "full_name": "Phường Duy Tân",
    "full_name_en": "Duy Tan Ward",
    "type": "phường",
    "district_code": "608",
    "codename": "duy_tan"
  },
  {
    "code": "23287",
    "name": "Quyết Thắng",
    "name_en": "Quyet Thang",
    "full_name": "Phường Quyết Thắng",
    "full_name_en": "Quyet Thang Ward",
    "type": "phường",
    "district_code": "608",
    "codename": "quyet_thang"
  },
  {
    "code": "23290",
    "name": "Trường Chinh",
    "name_en": "Truong Chinh",
    "full_name": "Phường Trường Chinh",
    "full_name_en": "Truong Chinh Ward",
    "type": "phường",
    "district_code": "608",
    "codename": "truong_chinh"
  },
  {
    "code": "23293",
    "name": "Thắng Lợi",
    "name_en": "Thang Loi",
    "full_name": "Phường Thắng Lợi",
    "full_name_en": "Thang Loi Ward",
    "type": "phường",
    "district_code": "608",
    "codename": "thang_loi"
  },
  {
    "code": "23296",
    "name": "Ngô Mây",
    "name_en": "Ngo May",
    "full_name": "Phường Ngô Mây",
    "full_name_en": "Ngo May Ward",
    "type": "phường",
    "district_code": "608",
    "codename": "ngo_may"
  },
  {
    "code": "23299",
    "name": "Thống Nhất",
    "name_en": "Thong Nhat",
    "full_name": "Phường Thống Nhất",
    "full_name_en": "Thong Nhat Ward",
    "type": "phường",
    "district_code": "608",
    "codename": "thong_nhat"
  },
  {
    "code": "23302",
    "name": "Lê Lợi",
    "name_en": "Le Loi",
    "full_name": "Phường Lê Lợi",
    "full_name_en": "Le Loi Ward",
    "type": "phường",
    "district_code": "608",
    "codename": "le_loi"
  },
  {
    "code": "23305",
    "name": "Nguyễn Trãi",
    "name_en": "Nguyen Trai",
    "full_name": "Phường Nguyễn Trãi",
    "full_name_en": "Nguyen Trai Ward",
    "type": "phường",
    "district_code": "608",
    "codename": "nguyen_trai"
  },
  {
    "code": "23308",
    "name": "Trần Hưng Đạo",
    "name_en": "Tran Hung Dao",
    "full_name": "Phường Trần Hưng Đạo",
    "full_name_en": "Tran Hung Dao Ward",
    "type": "phường",
    "district_code": "608",
    "codename": "tran_hung_dao"
  },
  {
    "code": "23311",
    "name": "Đắk Cấm",
    "name_en": "Dak Cam",
    "full_name": "Xã Đắk Cấm",
    "full_name_en": "Dak Cam Commune",
    "type": "xã",
    "district_code": "608",
    "codename": "dak_cam"
  },
  {
    "code": "23314",
    "name": "Kroong",
    "name_en": "Kroong",
    "full_name": "Xã Kroong",
    "full_name_en": "Kroong Commune",
    "type": "xã",
    "district_code": "608",
    "codename": "kroong"
  },
  {
    "code": "23317",
    "name": "Ngọk Bay",
    "name_en": "Ngok Bay",
    "full_name": "Xã Ngọk Bay",
    "full_name_en": "Ngok Bay Commune",
    "type": "xã",
    "district_code": "608",
    "codename": "ngok_bay"
  },
  {
    "code": "23320",
    "name": "Vinh Quang",
    "name_en": "Vinh Quang",
    "full_name": "Xã Vinh Quang",
    "full_name_en": "Vinh Quang Commune",
    "type": "xã",
    "district_code": "608",
    "codename": "vinh_quang"
  },
  {
    "code": "23323",
    "name": "Đắk Blà",
    "name_en": "Dak Bla",
    "full_name": "Xã Đắk Blà",
    "full_name_en": "Dak Bla Commune",
    "type": "xã",
    "district_code": "608",
    "codename": "dak_bla"
  },
  {
    "code": "23326",
    "name": "Ia Chim",
    "name_en": "Ia Chim",
    "full_name": "Xã Ia Chim",
    "full_name_en": "Ia Chim Commune",
    "type": "xã",
    "district_code": "608",
    "codename": "ia_chim"
  },
  {
    "code": "23327",
    "name": "Đăk Năng",
    "name_en": "Dak Nang",
    "full_name": "Xã Đăk Năng",
    "full_name_en": "Dak Nang Commune",
    "type": "xã",
    "district_code": "608",
    "codename": "dak_nang"
  },
  {
    "code": "23329",
    "name": "Đoàn Kết",
    "name_en": "Doan Ket",
    "full_name": "Xã Đoàn Kết",
    "full_name_en": "Doan Ket Commune",
    "type": "xã",
    "district_code": "608",
    "codename": "doan_ket"
  },
  {
    "code": "23332",
    "name": "Chư Hreng",
    "name_en": "Chu Hreng",
    "full_name": "Xã Chư Hreng",
    "full_name_en": "Chu Hreng Commune",
    "type": "xã",
    "district_code": "608",
    "codename": "chu_hreng"
  },
  {
    "code": "23335",
    "name": "Đắk Rơ Wa",
    "name_en": "Dak Ro Wa",
    "full_name": "Xã Đắk Rơ Wa",
    "full_name_en": "Dak Ro Wa Commune",
    "type": "xã",
    "district_code": "608",
    "codename": "dak_ro_wa"
  },
  {
    "code": "23338",
    "name": "Hòa Bình",
    "name_en": "Hoa Binh",
    "full_name": "Xã Hòa Bình",
    "full_name_en": "Hoa Binh Commune",
    "type": "xã",
    "district_code": "608",
    "codename": "hoa_binh"
  }
]