[
  {
    "code": "25993",
    "name": "Trảng Dài",
    "name_en": "Trang Dai",
    "full_name": "Phường Trảng Dài",
    "full_name_en": "Trang Dai Ward",
    "type": "phường",
    "district_code": "731",
    "codename": "trang_dai"
  },
  {
    "code": "25996",
    "name": "Tân Phong",
    "name_en": "Tan Phong",
    "full_name": "Phường Tân Phong",
    "full_name_en": "Tan Phong Ward",
    "type": "phường",
    "district_code": "731",
    "codename": "tan_phong"
  },
  {
    "code": "25999",
    "name": "Tân Biên",
    "name_en": "Tan Bien",
    "full_name": "Phường Tân Biên",
    "full_name_en": "Tan Bien Ward",
    "type": "phường",
    "district_code": "731",
    "codename": "tan_bien"
  },
  {
    "code": "26002",
    "name": "Hố Nai",
    "name_en": "Ho Nai",
    "full_name": "Phường Hố Nai",
    "full_name_en": "Ho Nai Ward",
    "type": "phường",
    "district_code": "731",
    "codename": "ho_nai"
  },
  {
    "code": "26005",
    "name": "Tân Hòa",
    "name_en": "Tan Hoa",
    "full_name": "Phường Tân Hòa",
    "full_name_en": "Tan Hoa Ward",
    "type": "phường",
    "district_code": "731",
    "codename": "tan_hoa"
  },
  {
    "code": "26008",
    "name": "Tân Hiệp",
    "name_en": "Tan Hiep",
    "full_name": "Phường Tân Hiệp",
    "full_name_en": "Tan Hiep Ward",
    "type": "phường",
    "district_code": "731",
    "codename": "tan_hiep"
  },
  {
    "code": "26011",
    "name": "Bửu Long",
    "name_en": "Buu Long",
    "full_name": "Phường Bửu Long",
    "full_name_en": "Buu Long Ward",
    "type": "phường",
    "district_code": "731",
    "codename": "buu_long"
  },
  {
    "code": "26014",
    "name": "Tân Mai",
    "name_en": "Tan Mai",
    "full_name": "Phường Tân Mai",
    "full_name_en": "Tan Mai Ward",
    "type": "phường",
    "district_code": "731",
    "codename": "tan_mai"
  },
  {
    "code": "26017",
    "name": "Tam Hiệp",
    "name_en": "Tam Hiep",
    "full_name": "Phường Tam Hiệp",
    "full_name_en": "Tam Hiep Ward",
    "type": "phường",
    "district_code": "731",
    "codename": "tam_hiep"
  },
  {
    "code": "26020",
    "name": "Long Bình",
    "name_en": "Long Binh",
    "full_name": "Phường Long Bình",
    "full_name_en": "Long Binh Ward",
    "type": "phường",
    "district_code": "731",
    "codename": "long_binh"
  },
  {
    "code": "26023",
    "name": "Quang Vinh",
    "name_en": "Quang Vinh",
    "full_name": "Phường Quang Vinh",
    "full_name_en": "Quang Vinh Ward",
    "type": "phường",
    "district_code": "731",
    "codename": "quang_vinh"
  },
  {
    "code": "26029",
    "name": "Thống Nhất",
    "name_en": "Thong Nhat",
    "full_name": "Phường Thống Nhất",
    "full_name_en": "Thong Nhat Ward",
    "type": "phường",
    "district_code": "731",
    "codename": "thong_nhat"
  },
  {
    "code": "26041",
    "name": "Trung Dũng",
    "name_en": "Trung Dung",
    "full_name": "Phường Trung Dũng",
    "full_name_en": "Trung Dung Ward",
    "type": "phường",
    "district_code": "731",
    "codename": "trung_dung"
  },
  {
    "code": "26047",
    "name": "Bình Đa",
    "name_en": "Binh Da",
    "full_name": "Phường Bình Đa",
    "full_name_en": "Binh Da Ward",
    "type": "phường",
    "district_code": "731",
    "codename": "binh_da"
  },
  {
    "code": "26050",
    "name": "An Bình",
    "name_en": "An Binh",
    "full_name": "Phường An Bình",
    "full_name_en": "An Binh Ward",
    "type": "phường",
    "district_code": "731",
    "codename": "an_binh"
  },
  {
    "code": "26053",
    "name": "Bửu Hòa",
    "name_en": "Buu Hoa",
    "full_name": "Phường Bửu Hòa",
    "full_name_en": "Buu Hoa Ward",
    "type": "phường",
    "district_code": "731",
    "codename": "buu_hoa"
  },
  {
    "code": "26056",
    "name": "Long Bình Tân",
    "name_en": "Long Binh Tan",
    "full_name": "Phường Long Bình Tân",
    "full_name_en": "Long Binh Tan Ward",
    "type": "phường",
    "district_code": "731",
    "codename": "long_binh_tan"
  },
  {
    "code": "26059",
    "name": "Tân Vạn",
    "name_en": "Tan Van",
    "full_name": "Phường Tân Vạn",
    "full_name_en": "Tan Van Ward",
    "type": "phường",
    "district_code": "731",
    "codename": "tan_van"
  },
  {
    "code": "26062",
    "name": "Tân Hạnh",
    "name_en": "Tan Hanh",
    "full_name": "Phường Tân Hạnh",
    "full_name_en": "Tan Hanh Ward",
    "type": "phường",
    "district_code": "731",
    "codename": "tan_hanh"
  },
  {
    "code": "26065",
    "name": "Hiệp Hòa",
    "name_en": "Hiep Hoa",
    "full_name": "Phường Hiệp Hòa",
    "full_name_en": "Hiep Hoa Ward",
    "type": "phường",
    "district_code": "731",
    "codename": "hiep_hoa"
  },
  {
    "code": "26068",
    "name": "Hóa An",
    "name_en": "Hoa An",
    "full_name": "Phường Hóa An",
    "full_name_en": "Hoa An Ward",
    "type": "phường",
    "district_code": "731",
    "codename": "hoa_an"
  },
  {
    "code": "26371",
    "name": "An Hòa",
    "name_en": "An Hoa",
    "full_name": "Phường An Hòa",
    "full_name_en": "An Hoa Ward",
    "type": "phường",
    "district_code": "731",
    "codename": "an_hoa"
  },
  {
    "code": "26374",
    "name": "Tam Phước",
    "name_en": "Tam Phuoc",
    "full_name": "Phường Tam Phước",
    "full_name_en": "Tam Phuoc Ward",
    "type": "phường",
    "district_code": "731",
    "codename": "tam_phuoc"
  },
  {
    "code": "26377",
    "name": "Phước Tân",
    "name_en": "Phuoc Tan",
    "full_name": "Phường Phước Tân",
    "full_name_en": "Phuoc Tan Ward",
    "type": "phường",
    "district_code": "731",
    "codename": "phuoc_tan"
  },
  {
    "code": "26380",
    "name": "Long Hưng",
    "name_en": "Long Hung",
    "full_name": "Xã Long Hưng",
    "full_name_en": "Long Hung Commune",
    "type": "xã",
    "district_code": "731",
    "codename": "long_hung"
  }
]