[
  {
    "code": "27127",
    "name": "14",
    "name_en": "14",
    "full_name": "Phường 14",
    "full_name_en": "Ward 14",
    "type": "phường",
    "district_code": "770",
    "codename": "14"
  },
  {
    "code": "27130",
    "name": "12",
    "name_en": "12",
    "full_name": "Phường 12",
    "full_name_en": "Ward 12",
    "type": "phường",
    "district_code": "770",
    "codename": "12"
  },
  {
    "code": "27133",
    "name": "11",
    "name_en": "11",
    "full_name": "Phường 11",
    "full_name_en": "Ward 11",
    "type": "phường",
    "district_code": "770",
    "codename": "11"
  },
  {
    "code": "27139",
    "name": "Võ Thị Sáu",
    "name_en": "Vo Thi Sau",
    "full_name": "Phường Võ Thị Sáu",
    "full_name_en": "Vo Thi Sau Ward",
    "type": "phường",
    "district_code": "770",
    "codename": "vo_thi_sau"
  },
  {
    "code": "27142",
    "name": "9",
    "name_en": "9",
    "full_name": "Phường 9",
    "full_name_en": "Ward 9",
    "type": "phường",
    "district_code": "770",
    "codename": "9"
  },
  {
    "code": "27148",
    "name": "4",
    "name_en": "4",
    "full_name": "Phường 4",
    "full_name_en": "Ward 4",
    "type": "phường",
    "district_code": "770",
    "codename": "4"
  },
  {
    "code": "27151",
    "name": "5",
    "name_en": "5",
    "full_name": "Phường 5",
    "full_name_en": "Ward 5",
    "type": "phường",
    "district_code": "770",
    "codename": "5"
  },
  {
    "code": "27154",
    "name": "3",
    "name_en": "3",
    "full_name": "Phường 3",
    "full_name_en": "Ward 3",
    "type": "phường",
    "district_code": "770",
    "codename": "3"
  },
  {
    "code": "27157",
    "name": "2",
    "name_en": "2",
    "full_name": "Phường 2",
    "full_name_en": "Ward 2",
    "type": "phường",
    "district_code": "770",
    "codename": "2"
  },
  {
    "code": "27160",
    "name": "1",
    "name_en": "1",
    "full_name": "Phường 1",
    "full_name_en": "Ward 1",
    "type": "phường",
    "district_code": "770",
    "codename": "1"
  }
]