[
  {
    "code": "28249",
    "name": "5",
    "name_en": "5",
    "full_name": "Phường 5",
    "full_name_en": "Ward 5",
    "type": "phường",
    "district_code": "815",
    "codename": "5"
  },
  {
    "code": "28252",
    "name": "4",
    "name_en": "4",
    "full_name": "Phường 4",
    "full_name_en": "Ward 4",
    "type": "phường",
    "district_code": "815",
    "codename": "4"
  },
  {
    "code": "28261",
    "name": "1",
    "name_en": "1",
    "full_name": "Phường 1",
    "full_name_en": "Ward 1",
    "type": "phường",
    "district_code": "815",
    "codename": "1"
  },
  {
    "code": "28264",
    "name": "2",
    "name_en": "2",
    "full_name": "Phường 2",
    "full_name_en": "Ward 2",
    "type": "phường",
    "district_code": "815",
    "codename": "2"
  },
  {
    "code": "28270",
    "name": "6",
    "name_en": "6",
    "full_name": "Phường 6",
    "full_name_en": "Ward 6",
    "type": "phường",
    "district_code": "815",
    "codename": "6"
  },
  {
    "code": "28273",
    "name": "9",
    "name_en": "9",
    "full_name": "Phường 9",
    "full_name_en": "Ward 9",
    "type": "phường",
    "district_code": "815",
    "codename": "9"
  },
  {
    "code": "28276",
    "name": "10",
    "name_en": "10",
    "full_name": "Phường 10",
    "full_name_en": "Ward 10",
    "type": "phường",
    "district_code": "815",
    "codename": "10"
  },
  {
    "code": "28279",
    "name": "Tân Long",
    "name_en": "Tan Long",
    "full_name": "Phường Tân Long",
    "full_name_en": "Tan Long Ward",
    "type": "phường",
    "district_code": "815",
    "codename": "tan_long"
  },
  {
    "code": "28282",
    "name": "Đạo Thạnh",
    "name_en": "Dao Thanh",
    "full_name": "Xã Đạo Thạnh",
    "full_name_en": "Dao Thanh Commune",
    "type": "xã",
    "district_code": "815",
    "codename": "dao_thanh"
  },
  {
    "code": "28285",
    "name": "Trung An",
    "name_en": "Trung An",
    "full_name": "Xã Trung An",
    "full_name_en": "Trung An Commune",
    "type": "xã",
    "district_code": "815",
    "codename": "trung_an"
  },
  {
    "code": "28288",
    "name": "Mỹ Phong",
    "name_en": "My Phong",
    "full_name": "Xã Mỹ Phong",
    "full_name_en": "My Phong Commune",
    "type": "xã",
    "district_code": "815",
    "codename": "my_phong"
  },
  {
    "code": "28291",
    "name": "Tân Mỹ Chánh",
    "name_en": "Tan My Chanh",
    "full_name": "Xã Tân Mỹ Chánh",
    "full_name_en": "Tan My Chanh Commune",
    "type": "xã",
    "district_code": "815",
    "codename": "tan_my_chanh"
  },
  {
    "code": "28567",
    "name": "Phước Thạnh",
    "name_en": "Phuoc Thanh",
    "full_name": "Xã Phước Thạnh",
    "full_name_en": "Phuoc Thanh Commune",
    "type": "xã",
    "district_code": "815",
    "codename": "phuoc_thanh"
  },
  {
    "code": "28591",
    "name": "Thới Sơn",
    "name_en": "Thoi Son",
    "full_name": "Xã Thới Sơn",
    "full_name_en": "Thoi Son Commune",
    "type": "xã",
    "district_code": "815",
    "codename": "thoi_son"
  }
]