[
  {
    "code": "28435",
    "name": "1",
    "name_en": "1",
    "full_name": "Phường 1",
    "full_name_en": "Ward 1",
    "type": "phường",
    "district_code": "817",
    "codename": "1"
  },
  {
    "code": "28436",
    "name": "2",
    "name_en": "2",
    "full_name": "Phường 2",
    "full_name_en": "Ward 2",
    "type": "phường",
    "district_code": "817",
    "codename": "2"
  },
  {
    "code": "28437",
    "name": "3",
    "name_en": "3",
    "full_name": "Phường 3",
    "full_name_en": "Ward 3",
    "type": "phường",
    "district_code": "817",
    "codename": "3"
  },
  {
    "code": "28439",
    "name": "4",
    "name_en": "4",
    "full_name": "Phường 4",
    "full_name_en": "Ward 4",
    "type": "phường",
    "district_code": "817",
    "codename": "4"
  },
  {
    "code": "28440",
    "name": "5",
    "name_en": "5",
    "full_name": "Phường 5",
    "full_name_en": "Ward 5",
    "type": "phường",
    "district_code": "817",
    "codename": "5"
  },
  {
    "code": "28447",
    "name": "Mỹ Phước Tây",
    "name_en": "My Phuoc Tay",
    "full_name": "Xã Mỹ Phước Tây",
    "full_name_en": "My Phuoc Tay Commune",
    "type": "xã",
    "district_code": "817",
    "codename": "my_phuoc_tay"
  },
  {
    "code": "28450",
    "name": "Mỹ Hạnh Đông",
    "name_en": "My Hanh Dong",
    "full_name": "Xã Mỹ Hạnh Đông",
    "full_name_en": "My Hanh Dong Commune",
    "type": "xã",
    "district_code": "817",
    "codename": "my_hanh_dong"
  },
  {
    "code": "28453",
    "name": "Mỹ Hạnh Trung",
    "name_en": "My Hanh Trung",
    "full_name": "Xã Mỹ Hạnh Trung",
    "full_name_en": "My Hanh Trung Commune",
    "type": "xã",
    "district_code": "817",
    "codename": "my_hanh_trung"
  },
  {
    "code": "28459",
    "name": "Tân Phú",
    "name_en": "Tan Phu",
    "full_name": "Xã Tân Phú",
    "full_name_en": "Tan Phu Commune",
    "type": "xã",
    "district_code": "817",
    "codename": "tan_phu"
  },
  {
    "code": "28462",
    "name": "Tân Bình",
    "name_en": "Tan Binh",
    "full_name": "Xã Tân Bình",
    "full_name_en": "Tan Binh Commune",
    "type": "xã",
    "district_code": "817",
    "codename": "tan_binh"
  },
  {
    "code": "28468",
    "name": "Tân Hội",
    "name_en": "Tan Hoi",
    "full_name": "Xã Tân Hội",
    "full_name_en": "Tan Hoi Commune",
    "type": "xã",
    "district_code": "817",
    "codename": "tan_hoi"
  },
  {
    "code": "28474",
    "name": "Nhị Mỹ",
    "name_en": "Nhi My",
    "full_name": "Phường Nhị Mỹ",
    "full_name_en": "Nhi My Ward",
    "type": "phường",
    "district_code": "817",
    "codename": "nhi_my"
  },
  {
    "code": "28477",
    "name": "Nhị Quý",
    "name_en": "Nhi Quy",
    "full_name": "Xã Nhị Quý",
    "full_name_en": "Nhi Quy Commune",
    "type": "xã",
    "district_code": "817",
    "codename": "nhi_quy"
  },
  {
    "code": "28480",
    "name": "Thanh Hòa",
    "name_en": "Thanh Hoa",
    "full_name": "Xã Thanh Hòa",
    "full_name_en": "Thanh Hoa Commune",
    "type": "xã",
    "district_code": "817",
    "codename": "thanh_hoa"
  },
  {
    "code": "28483",
    "name": "Phú Quý",
    "name_en": "Phu Quy",
    "full_name": "Xã Phú Quý",
    "full_name_en": "Phu Quy Commune",
    "type": "xã",
    "district_code": "817",
    "codename": "phu_quy"
  },
  {
    "code": "28486",
    "name": "Long Khánh",
    "name_en": "Long Khanh",
    "full_name": "Xã Long Khánh",
    "full_name_en": "Long Khanh Commune",
    "type": "xã",
    "district_code": "817",
    "codename": "long_khanh"
  }
]